OBJECT_NAME,OBJECT_ID,EPOCH,MEAN_MOTION,ECCENTRICITY,INCLINATION,RA_OF_ASC_NODE,ARG_OF_PERICENTER,MEAN_ANOMALY,EPHEMERIS_TYPE,CLASSIFICATION_TYPE,NORAD_CAT_ID,ELEMENT_SET_NO,REV_AT_EPOCH,BSTAR,MEAN_MOTION_DOT,MEAN_MOTION_DDOT
LEMUR-1,2014-033AL,2026-06-09T03:24:34.079040,14.85214027,.0049763,97.7869,310.1271,104.3033,256.3715,0,U,40044,999,64427,.23038E-3,.1964E-4,0
LEMUR-2-GREENBERG,2017-042N,2026-06-08T23:36:23.075424,15.31074945,.0009323,97.3821,340.6483,42.2873,317.9086,0,U,42837,999,48713,.48508E-3,.14516E-3,0
LEMUR-2-ANDIS,2017-042P,2026-06-09T00:45:21.047040,15.34518720,.0008844,97.3684,340.8524,41.5580,318.6334,0,U,42838,999,48720,.51383E-3,.17141E-3,0
LEMUR-2-MONSON,2017-042Q,2026-06-09T00:57:50.205024,15.27795735,.0006985,97.4082,340.6891,34.3598,325.8092,0,U,42839,999,48692,.4451E-3,.12024E-3,0
LEMUR-2-FURIAUS,2017-042R,2026-06-09T00:53:14.994240,15.29982616,.0008517,97.3773,338.6755,94.1198,266.1016,0,U,42840,999,48696,.53918E-3,.15605E-3,0
LEMUR-2-PETERG,2017-042S,2026-06-09T00:15:12.371040,15.33567491,.0003854,97.3994,345.0304,27.6679,332.4768,0,U,42841,999,48718,.56763E-3,.18367E-3,0
LEMUR-2-DEMBITZ,2017-042T,2026-06-09T01:22:16.849344,15.30045355,.0007404,97.3828,341.7126,55.0316,305.1619,0,U,42842,999,48710,.44522E-3,.1289E-3,0
LEMUR-2-ZACHARY,2017-042W,2026-06-09T01:19:33.652704,15.49558269,.0003475,97.3613,351.5235,61.9334,298.2268,0,U,42845,999,48794,.69318E-3,.38292E-3,0
LEMUR-2-AMANDA-SVANTE,2021-034B,2026-06-09T04:53:43.624896,15.33817792,.0001346,97.5760,238.2823,239.8719,120.2389,0,U,48269,999,27983,.87221E-3,.2852E-3,0
LEMUR-2-SPECIAL-K,2021-034F,2026-06-08T18:20:22.632576,15.62130553,.000325,97.5647,246.0278,233.3461,126.7498,0,U,48273,999,28037,.16094E-2,.143209E-2,0
LEMUR-2-EMBRIONOVIS,2023-084AQ,2026-06-09T03:08:58.583040,15.37347804,.0008282,97.6279,304.0237,351.6422,8.4682,0,U,56970,999,16644,.32575E-3,.11854E-3,0
LEMUR-2-DEVERILL-M-T,2023-100F,2026-06-09T01:05:43.590624,15.39349686,.0007074,99.4480,196.4556,75.5560,284.6463,0,U,57391,999,15999,.57305E-3,.22326E-3,0
LEMUR-2-BASS,2023-174D,2026-06-08T23:22:30.595008,15.42820694,.0007125,97.3843,244.5735,189.0922,171.0198,0,U,58259,999,14409,.34844E-3,.152E-3,0
LEMUR-2-JK0903EM1407,2023-174CJ,2026-06-08T18:13:05.033856,15.51250086,.0005968,97.3911,249.9965,143.3211,216.8451,0,U,58336,999,14442,.47398E-3,.27741E-3,0
LEMUR-2-MJR092620,2023-174CN,2026-06-09T04:35:03.970752,15.44580168,.0007056,97.3967,250.0751,140.9810,219.1949,0,U,58340,999,14441,.37415E-3,.17332E-3,0
LEMUR-2-NIMBUS2000,2024-022A,2026-06-09T02:03:42.962688,15.39734893,.0010017,97.4121,9.9873,140.7693,219.4281,0,U,58899,999,13102,.36568E-3,.14413E-3,0
LEMUR-2-VALHALLA,2024-022B,2026-06-09T01:55:52.114656,15.39424233,.0010584,97.4119,9.9767,137.0301,223.1773,0,U,58900,999,13102,.35012E-3,.13657E-3,0
LEMUR-2-OBA-NI-JESU,2024-022D,2026-06-09T03:08:56.214816,16.11545402,.0004707,97.3705,24.7846,203.5423,156.5647,0,U,58902,999,13203,.1236E-2,.1248403E-1,.10416E-2
LEMUR-2-CAEL,2024-022E,2026-06-09T02:19:48.823104,15.40708494,.0009155,97.4105,10.9151,121.2306,238.9839,0,U,58903,999,13109,.35815E-3,.14571E-3,0
LEMUR-2-JOHNNYTRUONG,2024-043BA,2026-06-08T08:42:43.729632,15.59808527,.00045314,97.5374,310.5249,204.0195,156.0851,0,U,59146,999,12666,.40388396E-3,.32364E-3,0
LEMUR-2-TOMATOKECHUP,2024-149D,2026-06-08T18:26:21.087168,15.35857069,.000061,97.3794,241.7949,200.2365,159.8855,0,U,60471,999,10087,.33401E-3,.11578E-3,0
LEMUR-2-STELLA,2024-149BT,2026-06-09T04:55:12.853632,15.11635538,.0001856,97.6731,242.6264,100.1883,259.9556,0,U,60533,999,9929,.53557E-3,.9042E-4,0
LEMUR-2-MARHISYAM,2024-149BW,2026-06-09T04:22:44.151744,15.11094587,.0003046,97.6875,243.0444,134.3320,225.8160,0,U,60536,999,9927,.60895E-3,.10139E-3,0
LEMUR-2-AHMED-ASRAR,2024-149DN,2026-06-09T00:37:06.617856,15.12528661,.0002639,97.7000,244.9486,63.1818,296.9682,0,U,60576,999,9933,.57913E-3,.10031E-3,0
LEMUR-2-LLOYD,2024-149DP,2026-06-08T18:06:12.273408,15.09079492,.0004517,97.6745,240.8800,159.6823,200.4586,0,U,60577,999,9912,.68094E-3,.10735E-3,0
LEMUR-2-SQUIRRELCOMM,2024-149DQ,2026-06-08T18:10:05.301984,15.07060835,.0006936,97.6715,240.6958,85.0748,275.1271,0,U,60578,999,9913,.44809E-3,.6663E-4,0
LEMUR-2-SIERRINI,2024-149DR,2026-06-09T04:54:11.575296,15.10777205,.0005189,97.6836,242.7625,188.5162,171.5980,0,U,60579,999,9925,.53857E-3,.8881E-4,0
LEMUR-2-WILSON,2025-009CP,2026-06-09T04:44:59.200224,14.95131657,.0004513,97.7024,238.8031,73.9340,286.2377,0,U,62694,999,7616,.14187E-3,.15E-4,0
LEMUR-2-STAR-FOX,2025-009CR,2026-06-08T23:13:21.091008,15.02380516,.0002981,97.6944,241.6361,133.8913,226.2558,0,U,62696,999,7632,.54626E-3,.7174E-4,0
LEMUR-2-ARIANNA,2025-009CU,2026-06-08T18:23:04.986816,15.02360819,.0003272,97.6884,241.2171,141.5313,218.6145,0,U,62699,999,7629,.6847E-3,.9005E-4,0
