LEMUR-1                 
1 40044U 14033AL  26160.14206110  .00001964  00000+0  23038-3 0  9991
2 40044  97.7869 310.1271 0049763 104.3033 256.3715 14.85214027644274
LEMUR-2-GREENBERG       
1 42837U 17042N   26159.98360041  .00014516  00000+0  48508-3 0  9996
2 42837  97.3821 340.6483 0009323  42.2873 317.9086 15.31074945487133
LEMUR-2-ANDIS           
1 42838U 17042P   26160.03149360  .00017141  00000+0  51383-3 0  9996
2 42838  97.3684 340.8524 0008844  41.5580 318.6334 15.34518720487202
LEMUR-2-MONSON          
1 42839U 17042Q   26160.04016441  .00012024  00000+0  44510-3 0  9990
2 42839  97.4082 340.6891 0006985  34.3598 325.8092 15.27795735486928
LEMUR-2-FURIAUS         
1 42840U 17042R   26160.03697910  .00015605  00000+0  53918-3 0  9997
2 42840  97.3773 338.6755 0008517  94.1198 266.1016 15.29982616486960
LEMUR-2-PETERG          
1 42841U 17042S   26160.01055985  .00018367  00000+0  56763-3 0  9995
2 42841  97.3994 345.0304 0003854  27.6679 332.4768 15.33567491487183
LEMUR-2-DEMBITZ         
1 42842U 17042T   26160.05713946  .00012890  00000+0  44522-3 0  9993
2 42842  97.3828 341.7126 0007404  55.0316 305.1619 15.30045355487104
LEMUR-2-ZACHARY         
1 42845U 17042W   26160.05525061  .00038292  00000+0  69318-3 0  9999
2 42845  97.3613 351.5235 0003475  61.9334 298.2268 15.49558269487946
LEMUR-2-AMANDA-SVANTE   
1 48269U 21034B   26160.20397714  .00028520  00000+0  87221-3 0  9996
2 48269  97.5760 238.2823 0001346 239.8719 120.2389 15.33817792279836
LEMUR-2-SPECIAL-K       
1 48273U 21034F   26159.76415084  .00143209  00000+0  16094-2 0  9992
2 48273  97.5647 246.0278 0003250 233.3461 126.7498 15.62130553280373
LEMUR-2-EMBRIONOVIS     
1 56970U 23084AQ  26160.13123360  .00011854  00000+0  32575-3 0  9991
2 56970  97.6279 304.0237 0008282 351.6422   8.4682 15.37347804166442
LEMUR-2-DEVERILL-M-T    
1 57391U 23100F   26160.04564341  .00022326  00000+0  57305-3 0  9990
2 57391  99.4480 196.4556 0007074  75.5560 284.6463 15.39349686159993
LEMUR-2-BASS            
1 58259U 23174D   26159.97396522  .00015200  00000+0  34844-3 0  9995
2 58259  97.3843 244.5735 0007125 189.0922 171.0198 15.42820694144097
LEMUR-2-JK0903EM1407    
1 58336U 23174CJ  26159.75908604  .00027741  00000+0  47398-3 0  9998
2 58336  97.3911 249.9965 0005968 143.3211 216.8451 15.51250086144429
LEMUR-2-MJR092620       
1 58340U 23174CN  26160.19101818  .00017332  00000+0  37415-3 0  9999
2 58340  97.3967 250.0751 0007056 140.9810 219.1949 15.44580168144415
LEMUR-2-NIMBUS2000      
1 58899U 24022A   26160.08591392  .00014413  00000+0  36568-3 0  9994
2 58899  97.4121   9.9873 0010017 140.7693 219.4281 15.39734893131026
LEMUR-2-VALHALLA        
1 58900U 24022B   26160.08046429  .00013657  00000+0  35012-3 0  9995
2 58900  97.4119   9.9767 0010584 137.0301 223.1773 15.39424233131024
LEMUR-2-OBA-NI-JESU     
1 58902U 24022D   26160.13120619  .01248403  10416-2  12360-2 0  9992
2 58902  97.3705  24.7846 0004707 203.5423 156.5647 16.11545402132037
LEMUR-2-CAEL            
1 58903U 24022E   26160.09709286  .00014571  00000+0  35815-3 0  9993
2 58903  97.4105  10.9151 0009155 121.2306 238.9839 15.40708494131093
LEMUR-2-JOHNNYTRUONG    
1 59146U 24043BA  26159.36300613  .00032364  00000+0  40388-3 0  9996
2 59146  97.5374 310.5249 0004531 204.0195 156.0851 15.59808527126667
LEMUR-2-TOMATOKECHUP    
1 60471U 24149D   26159.76829962  .00011578  00000+0  33401-3 0  9995
2 60471  97.3794 241.7949 0000610 200.2365 159.8855 15.35857069100876
LEMUR-2-STELLA          
1 60533U 24149BT  26160.20500988  .00009042  00000+0  53557-3 0  9996
2 60533  97.6731 242.6264 0001856 100.1883 259.9556 15.11635538 99297
LEMUR-2-MARHISYAM       
1 60536U 24149BW  26160.18245546  .00010139  00000+0  60895-3 0  9994
2 60536  97.6875 243.0444 0003046 134.3320 225.8160 15.11094587 99276
LEMUR-2-AHMED-ASRAR     
1 60576U 24149DN  26160.02577104  .00010031  00000+0  57913-3 0  9997
2 60576  97.7000 244.9486 0002639  63.1818 296.9682 15.12528661 99336
LEMUR-2-LLOYD           
1 60577U 24149DP  26159.75430872  .00010735  00000+0  68094-3 0  9999
2 60577  97.6745 240.8800 0004517 159.6823 200.4586 15.09079492 99120
LEMUR-2-SQUIRRELCOMM    
1 60578U 24149DQ  26159.75700581  .00006663  00000+0  44809-3 0  9990
2 60578  97.6715 240.6958 0006936  85.0748 275.1271 15.07060835 99135
LEMUR-2-SIERRINI        
1 60579U 24149DR  26160.20430064  .00008881  00000+0  53857-3 0  9996
2 60579  97.6836 242.7625 0005189 188.5162 171.5980 15.10777205 99251
LEMUR-2-WILSON          
1 62694U 25009CP  26160.19790741  .00001500  00000+0  14187-3 0  9995
2 62694  97.7024 238.8031 0004513  73.9340 286.2377 14.95131657 76169
LEMUR-2-STAR-FOX        
1 62696U 25009CR  26159.96760522  .00007174  00000+0  54626-3 0  9999
2 62696  97.6944 241.6361 0002981 133.8913 226.2558 15.02380516 76320
LEMUR-2-ARIANNA         
1 62699U 25009CU  26159.76602994  .00009005  00000+0  68470-3 0  9995
2 62699  97.6884 241.2171 0003272 141.5313 218.6145 15.02360819 76292
